[{"OBJECT_NAME":"STARLINK-3357","OBJECT_ID":"2022-005AY","EPOCH":"2026-03-09T22:13:47.461728","MEAN_MOTION":15.08835112,"ECCENTRICITY":0.00012256,"INCLINATION":53.2174,"RA_OF_ASC_NODE":297.6721,"ARG_OF_PERICENTER":90.3219,"MEAN_ANOMALY":269.7914,"EPHEMERIS_TYPE":0,"CLASSIFICATION_TYPE":"U","NORAD_CAT_ID":51150,"ELEMENT_SET_NO":999,"REV_AT_EPOCH":22878,"BSTAR":1.02925e-7,"MEAN_MOTION_DOT":-2.86e-6,"MEAN_MOTION_DDOT":0},{"OBJECT_NAME":"JILIN-01 KUANFU 02B 2","OBJECT_ID":"2024-169B","EPOCH":"2026-03-09T21:55:18.103008","MEAN_MOTION":15.09238424,"ECCENTRICITY":0.0011661,"INCLINATION":97.5565,"RA_OF_ASC_NODE":159.2927,"ARG_OF_PERICENTER":15.7533,"MEAN_ANOMALY":344.4056,"EPHEMERIS_TYPE":0,"CLASSIFICATION_TYPE":"U","NORAD_CAT_ID":61190,"ELEMENT_SET_NO":999,"REV_AT_EPOCH":8085,"BSTAR":0.0003793675,"MEAN_MOTION_DOT":5.983e-5,"MEAN_MOTION_DDOT":0}]
